{
  "type": "FeatureCollection",
  "features": [
    {
      "type": "Feature",
      "properties": {
        "norad_id": 31937,
        "name": "FENGYUN 1C DEB",
        "group": "fengyun-1c-debris",
        "lat": 37.45162638486653,
        "lon": 68.86001044264317,
        "alt_km": 650.1058281561054,
        "timestamp": "2025-12-12T11:38:31.697076+00:00",
        "meta_object_name": "FENGYUN 1C DEB",
        "meta_object_id": "1999-025CMN",
        "meta_epoch": "2025-12-06T23:52:27.149088",
        "meta_mean_motion": 14.78022374,
        "meta_eccentricity": 0.0162921,
        "meta_inclination": 99.2561,
        "meta_ra_of_asc_node": 69.7316,
        "meta_arg_of_pericenter": 315.3928,
        "meta_mean_anomaly": 43.4262,
        "meta_ephemeris_type": 0,
        "meta_classification_type": "U",
        "meta_norad_cat_id": 31937,
        "meta_element_set_no": 999,
        "meta_rev_at_epoch": 65984,
        "meta_bstar": 0.0011794166,
        "meta_mean_motion_dot": 0.00010567,
        "meta_mean_motion_ddot": 0,
        "tle_line1": "1 31937U 99025CMN 25340.99475867  .00010567  00000+0  11794-2 0  9999",
        "tle_line2": "2 31937  99.2561  69.7316 0162921 315.3928  43.4262 14.78022374659842"
      },
      "geometry": {
        "type": "Point",
        "coordinates": [
          68.86001044264317,
          37.45162638486653
        ]
      }
    },
    {
      "type": "Feature",
      "properties": {
        "norad_id": 31938,
        "name": "FENGYUN 1C DEB",
        "group": "fengyun-1c-debris",
        "lat": -28.973839077252904,
        "lon": 22.876095695530438,
        "alt_km": 596.3298460035603,
        "timestamp": "2025-12-12T11:38:31.697088+00:00",
        "meta_object_name": "FENGYUN 1C DEB",
        "meta_object_id": "1999-025CMP",
        "meta_epoch": "2025-12-11T13:17:35.660544",
        "meta_mean_motion": 14.95588227,
        "meta_eccentricity": 0.01528055,
        "meta_inclination": 98.9296,
        "meta_ra_of_asc_node": 16.821,
        "meta_arg_of_pericenter": 69.9874,
        "meta_mean_anomaly": 291.7722,
        "meta_ephemeris_type": 0,
        "meta_classification_type": "U",
        "meta_norad_cat_id": 31938,
        "meta_element_set_no": 999,
        "meta_rev_at_epoch": 99118,
        "meta_bstar": 0.0006028175,
        "meta_mean_motion_dot": 8.389e-05,
        "meta_mean_motion_ddot": 0,
        "tle_line1": "1 31938U 99025CMP 25345.55388496  .00008389  00000+0  60282-3 0  9994",
        "tle_line2": "2 31938  98.9296  16.8210 0152805  69.9874 291.7722 14.95588227991180"
      },
      "geometry": {
        "type": "Point",
        "coordinates": [
          22.876095695530438,
          -28.973839077252904
        ]
      }
    },
    {
      "type": "Feature",
      "properties": {
        "norad_id": 31944,
        "name": "FENGYUN 1C DEB",
        "group": "fengyun-1c-debris",
        "lat": -79.45649204766778,
        "lon": -165.43055251454874,
        "alt_km": 858.621640350786,
        "timestamp": "2025-12-12T11:38:31.697101+00:00",
        "meta_object_name": "FENGYUN 1C DEB",
        "meta_object_id": "1999-025CMV",
        "meta_epoch": "2025-12-12T04:22:40.814112",
        "meta_mean_motion": 14.11787529,
        "meta_eccentricity": 0.0151811,
        "meta_inclination": 99.2035,
        "meta_ra_of_asc_node": 133.6743,
        "meta_arg_of_pericenter": 5.8705,
        "meta_mean_anomaly": 173.5719,
        "meta_ephemeris_type": 0,
        "meta_classification_type": "U",
        "meta_norad_cat_id": 31944,
        "meta_element_set_no": 999,
        "meta_rev_at_epoch": 62902,
        "meta_bstar": 0.00074704,
        "meta_mean_motion_dot": 1.471e-05,
        "meta_mean_motion_ddot": 0,
        "tle_line1": "1 31944U 99025CMV 25346.18241683  .00001471  00000+0  74704-3 0  9996",
        "tle_line2": "2 31944  99.2035 133.6743 0151811   5.8705 173.5719 14.11787529629027"
      },
      "geometry": {
        "type": "Point",
        "coordinates": [
          -165.43055251454874,
          -79.45649204766778
        ]
      }
    },
    {
      "type": "Feature",
      "properties": {
        "norad_id": 31945,
        "name": "FENGYUN 1C DEB",
        "group": "fengyun-1c-debris",
        "lat": -72.97803455388751,
        "lon": -148.20864508702508,
        "alt_km": 792.871239396557,
        "timestamp": "2025-12-12T11:38:31.697111+00:00",
        "meta_object_name": "FENGYUN 1C DEB",
        "meta_object_id": "1999-025CMW",
        "meta_epoch": "2025-12-11T04:00:57.710304",
        "meta_mean_motion": 14.20785268,
        "meta_eccentricity": 0.00609033,
        "meta_inclination": 98.9621,
        "meta_ra_of_asc_node": 61.4835,
        "meta_arg_of_pericenter": 291.7342,
        "meta_mean_anomaly": 67.7359,
        "meta_ephemeris_type": 0,
        "meta_classification_type": "U",
        "meta_norad_cat_id": 31945,
        "meta_element_set_no": 999,
        "meta_rev_at_epoch": 95173,
        "meta_bstar": 0.0021389026,
        "meta_mean_motion_dot": 4.661e-05,
        "meta_mean_motion_ddot": 0,
        "tle_line1": "1 31945U 99025CMW 25345.16733461  .00004661  00000+0  21389-2 0  9998",
        "tle_line2": "2 31945  98.9621  61.4835 0060903 291.7342  67.7359 14.20785268951737"
      },
      "geometry": {
        "type": "Point",
        "coordinates": [
          -148.20864508702508,
          -72.97803455388751
        ]
      }
    },
    {
      "type": "Feature",
      "properties": {
        "norad_id": 31946,
        "name": "FENGYUN 1C DEB",
        "group": "fengyun-1c-debris",
        "lat": 43.81114653101289,
        "lon": -124.64645589210005,
        "alt_km": 827.8001508420948,
        "timestamp": "2025-12-12T11:38:31.697121+00:00",
        "meta_object_name": "FENGYUN 1C DEB",
        "meta_object_id": "1999-025CMX",
        "meta_epoch": "2025-12-10T21:42:54.518688",
        "meta_mean_motion": 14.16418579,
        "meta_eccentricity": 0.0082455,
        "meta_inclination": 98.8975,
        "meta_ra_of_asc_node": 45.1311,
        "meta_arg_of_pericenter": 55.1709,
        "meta_mean_anomaly": 305.7186,
        "meta_ephemeris_type": 0,
        "meta_classification_type": "U",
        "meta_norad_cat_id": 31946,
        "meta_element_set_no": 999,
        "meta_rev_at_epoch": 63982,
        "meta_bstar": 0.001779,
        "meta_mean_motion_dot": 3.612e-05,
        "meta_mean_motion_ddot": 0,
        "tle_line1": "1 31946U 99025CMX 25344.90479767  .00003612  00000+0  17790-2 0  9992",
        "tle_line2": "2 31946  98.8975  45.1311 0082455  55.1709 305.7186 14.16418579639821"
      },
      "geometry": {
        "type": "Point",
        "coordinates": [
          -124.64645589210005,
          43.81114653101289
        ]
      }
    },
    {
      "type": "Feature",
      "properties": {
        "norad_id": 31948,
        "name": "FENGYUN 1C DEB",
        "group": "fengyun-1c-debris",
        "lat": 32.841714526012865,
        "lon": -126.97329957137933,
        "alt_km": 804.5220601992241,
        "timestamp": "2025-12-12T11:38:31.697131+00:00",
        "meta_object_name": "FENGYUN 1C DEB",
        "meta_object_id": "1999-025CMZ",
        "meta_epoch": "2025-12-08T09:44:13.179840",
        "meta_mean_motion": 14.28248279,
        "meta_eccentricity": 0.00237817,
        "meta_inclination": 99.3918,
        "meta_ra_of_asc_node": 42.5089,
        "meta_arg_of_pericenter": 35.7447,
        "meta_mean_anomaly": 26.9919,
        "meta_ephemeris_type": 0,
        "meta_classification_type": "U",
        "meta_norad_cat_id": 31948,
        "meta_element_set_no": 999,
        "meta_rev_at_epoch": 94966,
        "meta_bstar": 0.0021945448,
        "meta_mean_motion_dot": 5.441e-05,
        "meta_mean_motion_ddot": 0,
        "tle_line1": "1 31948U 99025CMZ 25342.40570810  .00005441  00000+0  21945-2 0  9997",
        "tle_line2": "2 31948  99.3918  42.5089 0023781  35.7447  26.9919 14.28248279949662"
      },
      "geometry": {
        "type": "Point",
        "coordinates": [
          -126.97329957137933,
          32.841714526012865
        ]
      }
    },
    {
      "type": "Feature",
      "properties": {
        "norad_id": 31949,
        "name": "FENGYUN 1C DEB",
        "group": "fengyun-1c-debris",
        "lat": -20.793551863844886,
        "lon": -24.73311820768365,
        "alt_km": 892.7322162126538,
        "timestamp": "2025-12-12T11:38:31.697141+00:00",
        "meta_object_name": "FENGYUN 1C DEB",
        "meta_object_id": "1999-025CNA",
        "meta_epoch": "2025-11-23T05:03:27.897984",
        "meta_mean_motion": 14.1687356,
        "meta_eccentricity": 0.01252295,
        "meta_inclination": 98.5419,
        "meta_ra_of_asc_node": 313.4803,
        "meta_arg_of_pericenter": 269.0533,
        "meta_mean_anomaly": 89.6292,
        "meta_ephemeris_type": 0,
        "meta_classification_type": "U",
        "meta_norad_cat_id": 31949,
        "meta_element_set_no": 999,
        "meta_rev_at_epoch": 95228,
        "meta_bstar": 0.00041514195,
        "meta_mean_motion_dot": 8.56e-06,
        "meta_mean_motion_ddot": 0,
        "tle_line1": "1 31949U 99025CNA 25327.21073956  .00000856  00000+0  41514-3 0  9999",
        "tle_line2": "2 31949  98.5419 313.4803 0125229 269.0533  89.6292 14.16873560952288"
      },
      "geometry": {
        "type": "Point",
        "coordinates": [
          -24.73311820768365,
          -20.793551863844886
        ]
      }
    }
  ]
}